{
  "type": "FeatureCollection",
  "features": [
    {
      "type": "Feature",
      "properties": {
        "norad_id": 30264,
        "name": "FENGYUN 1C DEB",
        "group": "fengyun-1c-debris",
        "lat": -36.7399014364646,
        "lon": -130.43170696265761,
        "alt_km": 804.9219902952618,
        "timestamp": "2025-12-27T07:26:25.496856+00:00",
        "meta_object_name": "FENGYUN 1C DEB",
        "meta_object_id": "1999-025XZ",
        "meta_epoch": "2025-12-26T03:22:51.053088",
        "meta_mean_motion": 14.07692025,
        "meta_eccentricity": 0.01083064,
        "meta_inclination": 98.9695,
        "meta_ra_of_asc_node": 55.1779,
        "meta_arg_of_pericenter": 249.7792,
        "meta_mean_anomaly": 166.3784,
        "meta_ephemeris_type": 0,
        "meta_classification_type": "U",
        "meta_norad_cat_id": 30264,
        "meta_element_set_no": 999,
        "meta_rev_at_epoch": 96746,
        "meta_bstar": 0.0010784608,
        "meta_mean_motion_dot": 1.879e-05,
        "meta_mean_motion_ddot": 0,
        "tle_line1": "1 30264U 99025XZ  25360.14086867  .00001879  00000+0  10785-2 0  9993",
        "tle_line2": "2 30264  98.9695  55.1779 0108306 249.7792 166.3784 14.07692025967468"
      },
      "geometry": {
        "type": "Point",
        "coordinates": [
          -130.43170696265761,
          -36.7399014364646
        ]
      }
    },
    {
      "type": "Feature",
      "properties": {
        "norad_id": 30265,
        "name": "FENGYUN 1C DEB",
        "group": "fengyun-1c-debris",
        "lat": 33.69556958763718,
        "lon": 105.22181454324006,
        "alt_km": 686.8073576508496,
        "timestamp": "2025-12-27T07:26:25.496866+00:00",
        "meta_object_name": "FENGYUN 1C DEB",
        "meta_object_id": "1999-025YA",
        "meta_epoch": "2025-12-26T18:51:33.551136",
        "meta_mean_motion": 14.58895064,
        "meta_eccentricity": 0.00279736,
        "meta_inclination": 98.6628,
        "meta_ra_of_asc_node": 110.5101,
        "meta_arg_of_pericenter": 328.7833,
        "meta_mean_anomaly": 193.5783,
        "meta_ephemeris_type": 0,
        "meta_classification_type": "U",
        "meta_norad_cat_id": 30265,
        "meta_element_set_no": 999,
        "meta_rev_at_epoch": 98606,
        "meta_bstar": 0.0023102056,
        "meta_mean_motion_dot": 0.00010844,
        "meta_mean_motion_ddot": 0,
        "tle_line1": "1 30265U 99025YA  25360.78580499  .00010844  00000+0  23102-2 0  9993",
        "tle_line2": "2 30265  98.6628 110.5101 0027973 328.7833 193.5783 14.58895064986063"
      },
      "geometry": {
        "type": "Point",
        "coordinates": [
          105.22181454324006,
          33.69556958763718
        ]
      }
    },
    {
      "type": "Feature",
      "properties": {
        "norad_id": 30266,
        "name": "FENGYUN 1C DEB",
        "group": "fengyun-1c-debris",
        "lat": -76.00203316049003,
        "lon": 105.41361728040648,
        "alt_km": 862.5397263548139,
        "timestamp": "2025-12-27T07:26:25.496876+00:00",
        "meta_object_name": "FENGYUN 1C DEB",
        "meta_object_id": "1999-025YB",
        "meta_epoch": "2025-12-26T17:05:57.948864",
        "meta_mean_motion": 14.15146768,
        "meta_eccentricity": 0.00816459,
        "meta_inclination": 99.0414,
        "meta_ra_of_asc_node": 65.1119,
        "meta_arg_of_pericenter": 26.0768,
        "meta_mean_anomaly": 93.0817,
        "meta_ephemeris_type": 0,
        "meta_classification_type": "U",
        "meta_norad_cat_id": 30266,
        "meta_element_set_no": 999,
        "meta_rev_at_epoch": 96987,
        "meta_bstar": 0.0012601021,
        "meta_mean_motion_dot": 2.481e-05,
        "meta_mean_motion_ddot": 0,
        "tle_line1": "1 30266U 99025YB  25360.71247626  .00002481  00000+0  12601-2 0  9999",
        "tle_line2": "2 30266  99.0414  65.1119 0081645  26.0768  93.0817 14.15146768969872"
      },
      "geometry": {
        "type": "Point",
        "coordinates": [
          105.41361728040648,
          -76.00203316049003
        ]
      }
    },
    {
      "type": "Feature",
      "properties": {
        "norad_id": 30267,
        "name": "FENGYUN 1C DEB",
        "group": "fengyun-1c-debris",
        "lat": -73.96774550373021,
        "lon": 105.38533686223118,
        "alt_km": 813.6238485950189,
        "timestamp": "2025-12-27T07:26:25.496886+00:00",
        "meta_object_name": "FENGYUN 1C DEB",
        "meta_object_id": "1999-025YC",
        "meta_epoch": "2025-12-26T16:37:16.557600",
        "meta_mean_motion": 14.23700231,
        "meta_eccentricity": 0.00600214,
        "meta_inclination": 98.8482,
        "meta_ra_of_asc_node": 71.939,
        "meta_arg_of_pericenter": 203.5654,
        "meta_mean_anomaly": 156.2772,
        "meta_ephemeris_type": 0,
        "meta_classification_type": "U",
        "meta_norad_cat_id": 30267,
        "meta_element_set_no": 999,
        "meta_rev_at_epoch": 97493,
        "meta_bstar": 0.0015894023,
        "meta_mean_motion_dot": 3.652e-05,
        "meta_mean_motion_ddot": 0,
        "tle_line1": "1 30267U 99025YC  25360.69255275  .00003652  00000+0  15894-2 0  9994",
        "tle_line2": "2 30267  98.8482  71.9390 0060021 203.5654 156.2772 14.23700231974937"
      },
      "geometry": {
        "type": "Point",
        "coordinates": [
          105.38533686223118,
          -73.96774550373021
        ]
      }
    },
    {
      "type": "Feature",
      "properties": {
        "norad_id": 30270,
        "name": "FENGYUN 1C DEB",
        "group": "fengyun-1c-debris",
        "lat": -16.801854386698615,
        "lon": 17.2336984379407,
        "alt_km": 864.1010195634144,
        "timestamp": "2025-12-27T07:26:25.496897+00:00",
        "meta_object_name": "FENGYUN 1C DEB",
        "meta_object_id": "1999-025YF",
        "meta_epoch": "2025-12-26T23:17:35.312640",
        "meta_mean_motion": 14.11277624,
        "meta_eccentricity": 0.0007958,
        "meta_inclination": 98.7017,
        "meta_ra_of_asc_node": 14.2542,
        "meta_arg_of_pericenter": 122.2319,
        "meta_mean_anomaly": 297.1949,
        "meta_ephemeris_type": 0,
        "meta_classification_type": "U",
        "meta_norad_cat_id": 30270,
        "meta_element_set_no": 999,
        "meta_rev_at_epoch": 97562,
        "meta_bstar": 0.00014834693,
        "meta_mean_motion_dot": 2.25e-06,
        "meta_mean_motion_ddot": 0,
        "tle_line1": "1 30270U 99025YF  25360.97054760  .00000225  00000+0  14835-3 0  9993",
        "tle_line2": "2 30270  98.7017  14.2542 0007958 122.2319 297.1949 14.11277624975628"
      },
      "geometry": {
        "type": "Point",
        "coordinates": [
          17.2336984379407,
          -16.801854386698615
        ]
      }
    },
    {
      "type": "Feature",
      "properties": {
        "norad_id": 30272,
        "name": "FENGYUN 1C DEB",
        "group": "fengyun-1c-debris",
        "lat": 35.946546321911015,
        "lon": 62.436389538681226,
        "alt_km": 808.0748949602248,
        "timestamp": "2025-12-27T07:26:25.496907+00:00",
        "meta_object_name": "FENGYUN 1C DEB",
        "meta_object_id": "1999-025YH",
        "meta_epoch": "2025-12-26T10:54:06.945984",
        "meta_mean_motion": 14.14769767,
        "meta_eccentricity": 0.0050059,
        "meta_inclination": 98.8995,
        "meta_ra_of_asc_node": 68.1072,
        "meta_arg_of_pericenter": 65.1953,
        "meta_mean_anomaly": 295.4416,
        "meta_ephemeris_type": 0,
        "meta_classification_type": "U",
        "meta_norad_cat_id": 30272,
        "meta_element_set_no": 999,
        "meta_rev_at_epoch": 97050,
        "meta_bstar": 0.0010616,
        "meta_mean_motion_dot": 2.027e-05,
        "meta_mean_motion_ddot": 0,
        "tle_line1": "1 30272U 99025YH  25360.45424706  .00002027  00000+0  10616-2 0  9993",
        "tle_line2": "2 30272  98.8995  68.1072 0050059  65.1953 295.4416 14.14769767970500"
      },
      "geometry": {
        "type": "Point",
        "coordinates": [
          62.436389538681226,
          35.946546321911015
        ]
      }
    },
    {
      "type": "Feature",
      "properties": {
        "norad_id": 30273,
        "name": "FENGYUN 1C DEB",
        "group": "fengyun-1c-debris",
        "lat": 76.02714564229066,
        "lon": -125.84812869957352,
        "alt_km": 890.4872321343291,
        "timestamp": "2025-12-27T07:26:25.496917+00:00",
        "meta_object_name": "FENGYUN 1C DEB",
        "meta_object_id": "1999-025YJ",
        "meta_epoch": "2025-12-26T12:51:00.051264",
        "meta_mean_motion": 14.02676486,
        "meta_eccentricity": 0.0060771,
        "meta_inclination": 98.8389,
        "meta_ra_of_asc_node": 14.6928,
        "meta_arg_of_pericenter": 210.6932,
        "meta_mean_anomaly": 301.5233,
        "meta_ephemeris_type": 0,
        "meta_classification_type": "U",
        "meta_norad_cat_id": 30273,
        "meta_element_set_no": 999,
        "meta_rev_at_epoch": 96722,
        "meta_bstar": 0.00032031,
        "meta_mean_motion_dot": 4.6e-06,
        "meta_mean_motion_ddot": 0,
        "tle_line1": "1 30273U 99025YJ  25360.53541726  .00000460  00000+0  32031-3 0  9990",
        "tle_line2": "2 30273  98.8389  14.6928 0060771 210.6932 301.5233 14.02676486967223"
      },
      "geometry": {
        "type": "Point",
        "coordinates": [
          -125.84812869957352,
          76.02714564229066
        ]
      }
    }
  ]
}